[{"OBJECT_NAME":"IRIDIUM 152","OBJECT_ID":"2018-047D","EPOCH":"2026-03-04T05:45:14.288544","MEAN_MOTION":14.34218327,"ECCENTRICITY":0.00022674,"INCLINATION":86.3985,"RA_OF_ASC_NODE":132.2205,"ARG_OF_PERICENTER":91.9971,"MEAN_ANOMALY":268.1484,"EPHEMERIS_TYPE":0,"CLASSIFICATION_TYPE":"U","NORAD_CAT_ID":43479,"ELEMENT_SET_NO":999,"REV_AT_EPOCH":40744,"BSTAR":5.9055919e-5,"MEAN_MOTION_DOT":1.85e-6,"MEAN_MOTION_DDOT":0},{"OBJECT_NAME":"IRIDIUM 147","OBJECT_ID":"2018-047E","EPOCH":"2026-03-04T14:16:41.974464","MEAN_MOTION":14.34219988,"ECCENTRICITY":0.0002218,"INCLINATION":86.3986,"RA_OF_ASC_NODE":132.0754,"ARG_OF_PERICENTER":99.5061,"MEAN_ANOMALY":260.6385,"EPHEMERIS_TYPE":0,"CLASSIFICATION_TYPE":"U","NORAD_CAT_ID":43480,"ELEMENT_SET_NO":999,"REV_AT_EPOCH":40749,"BSTAR":8.7999e-5,"MEAN_MOTION_DOT":2.66e-6,"MEAN_MOTION_DDOT":0},{"OBJECT_NAME":"IRIDIUM 110","OBJECT_ID":"2018-047F","EPOCH":"2026-03-04T14:25:50.320704","MEAN_MOTION":14.3421812,"ECCENTRICITY":0.0002556,"INCLINATION":86.3986,"RA_OF_ASC_NODE":132.1615,"ARG_OF_PERICENTER":89.5816,"MEAN_ANOMALY":270.5673,"EPHEMERIS_TYPE":0,"CLASSIFICATION_TYPE":"U","NORAD_CAT_ID":43481,"ELEMENT_SET_NO":999,"REV_AT_EPOCH":40748,"BSTAR":2.5666e-5,"MEAN_MOTION_DOT":9.2e-7,"MEAN_MOTION_DDOT":0},{"OBJECT_NAME":"IRIDIUM 162","OBJECT_ID":"2018-047G","EPOCH":"2026-03-04T06:21:47.552544","MEAN_MOTION":14.43282729,"ECCENTRICITY":0.00021234,"INCLINATION":86.4508,"RA_OF_ASC_NODE":132.2416,"ARG_OF_PERICENTER":91.9778,"MEAN_ANOMALY":268.1666,"EPHEMERIS_TYPE":0,"CLASSIFICATION_TYPE":"U","NORAD_CAT_ID":43482,"ELEMENT_SET_NO":999,"REV_AT_EPOCH":40999,"BSTAR":0.00013030824,"MEAN_MOTION_DOT":4.59e-6,"MEAN_MOTION_DDOT":0},{"OBJECT_NAME":"IRIDIUM 160","OBJECT_ID":"2018-061A","EPOCH":"2026-03-04T13:07:50.462976","MEAN_MOTION":14.34218146,"ECCENTRICITY":0.0002366,"INCLINATION":86.3922,"RA_OF_ASC_NODE":100.5685,"ARG_OF_PERICENTER":92.1906,"MEAN_ANOMALY":267.9561,"EPHEMERIS_TYPE":0,"CLASSIFICATION_TYPE":"U","NORAD_CAT_ID":43569,"ELEMENT_SET_NO":999,"REV_AT_EPOCH":39837,"BSTAR":1.579e-5,"MEAN_MOTION_DOT":6.4e-7,"MEAN_MOTION_DDOT":0},{"OBJECT_NAME":"IRIDIUM 166","OBJECT_ID":"2018-061B","EPOCH":"2026-03-04T12:03:54.389376","MEAN_MOTION":14.34218611,"ECCENTRICITY":0.0002201,"INCLINATION":86.3919,"RA_OF_ASC_NODE":100.5388,"ARG_OF_PERICENTER":96.2463,"MEAN_ANOMALY":263.8984,"EPHEMERIS_TYPE":0,"CLASSIFICATION_TYPE":"U","NORAD_CAT_ID":43570,"ELEMENT_SET_NO":999,"REV_AT_EPOCH":39839,"BSTAR":4.8543e-5,"MEAN_MOTION_DOT":1.56e-6,"MEAN_MOTION_DDOT":0},{"OBJECT_NAME":"IRIDIUM 158","OBJECT_ID":"2018-061C","EPOCH":"2026-03-04T19:40:34.375584","MEAN_MOTION":14.34217843,"ECCENTRICITY":0.0002134,"INCLINATION":86.3923,"RA_OF_ASC_NODE":100.4163,"ARG_OF_PERICENTER":89.3305,"MEAN_ANOMALY":270.8135,"EPHEMERIS_TYPE":0,"CLASSIFICATION_TYPE":"U","NORAD_CAT_ID":43571,"ELEMENT_SET_NO":999,"REV_AT_EPOCH":39840,"BSTAR":5.2045e-5,"MEAN_MOTION_DOT":1.66e-6,"MEAN_MOTION_DDOT":0},{"OBJECT_NAME":"IRIDIUM 165","OBJECT_ID":"2018-061D","EPOCH":"2026-03-04T11:54:46.431936","MEAN_MOTION":14.34218111,"ECCENTRICITY":0.00021785,"INCLINATION":86.3921,"RA_OF_ASC_NODE":100.5957,"ARG_OF_PERICENTER":96.5804,"MEAN_ANOMALY":263.564,"EPHEMERIS_TYPE":0,"CLASSIFICATION_TYPE":"U","NORAD_CAT_ID":43572,"ELEMENT_SET_NO":999,"REV_AT_EPOCH":39838,"BSTAR":2.9929259e-5,"MEAN_MOTION_DOT":1.04e-6,"MEAN_MOTION_DDOT":0},{"OBJECT_NAME":"IRIDIUM 155","OBJECT_ID":"2018-061E","EPOCH":"2026-03-04T10:59:58.426368","MEAN_MOTION":14.34217579,"ECCENTRICITY":0.00019496,"INCLINATION":86.3921,"RA_OF_ASC_NODE":100.4856,"ARG_OF_PERICENTER":93.5037,"MEAN_ANOMALY":266.6381,"EPHEMERIS_TYPE":0,"CLASSIFICATION_TYPE":"U","NORAD_CAT_ID":43573,"ELEMENT_SET_NO":999,"REV_AT_EPOCH":39834,"BSTAR":-1.1003007e-5,"MEAN_MOTION_DOT":-1.1e-7,"MEAN_MOTION_DDOT":0},{"OBJECT_NAME":"IRIDIUM 154","OBJECT_ID":"2018-061F","EPOCH":"2026-03-04T12:13:03.299808","MEAN_MOTION":14.3422224,"ECCENTRICITY":0.0002216,"INCLINATION":86.3923,"RA_OF_ASC_NODE":100.5934,"ARG_OF_PERICENTER":98.7976,"MEAN_ANOMALY":261.3471,"EPHEMERIS_TYPE":0,"CLASSIFICATION_TYPE":"U","NORAD_CAT_ID":43574,"ELEMENT_SET_NO":999,"REV_AT_EPOCH":39840,"BSTAR":0.00011066,"MEAN_MOTION_DOT":3.3e-6,"MEAN_MOTION_DDOT":0},{"OBJECT_NAME":"IRIDIUM 163","OBJECT_ID":"2018-061G","EPOCH":"2026-03-04T11:45:38.505600","MEAN_MOTION":14.34217645,"ECCENTRICITY":0.0002251,"INCLINATION":86.3919,"RA_OF_ASC_NODE":100.52,"ARG_OF_PERICENTER":91.1094,"MEAN_ANOMALY":269.036,"EPHEMERIS_TYPE":0,"CLASSIFICATION_TYPE":"U","NORAD_CAT_ID":43575,"ELEMENT_SET_NO":999,"REV_AT_EPOCH":39837,"BSTAR":4.605855e-6,"MEAN_MOTION_DOT":3.3e-7,"MEAN_MOTION_DDOT":0},{"OBJECT_NAME":"IRIDIUM 156","OBJECT_ID":"2018-061H","EPOCH":"2026-03-04T19:31:26.404320","MEAN_MOTION":14.34217731,"ECCENTRICITY":0.000192,"INCLINATION":86.3923,"RA_OF_ASC_NODE":100.3915,"ARG_OF_PERICENTER":93.8509,"MEAN_ANOMALY":266.2906,"EPHEMERIS_TYPE":0,"CLASSIFICATION_TYPE":"U","NORAD_CAT_ID":43576,"ELEMENT_SET_NO":999,"REV_AT_EPOCH":39841,"BSTAR":-1.8413e-7,"MEAN_MOTION_DOT":1.9e-7,"MEAN_MOTION_DDOT":0},{"OBJECT_NAME":"IRIDIUM 164","OBJECT_ID":"2018-061J","EPOCH":"2026-03-04T19:04:02.492256","MEAN_MOTION":14.34217811,"ECCENTRICITY":0.0002319,"INCLINATION":86.3922,"RA_OF_ASC_NODE":100.4384,"ARG_OF_PERICENTER":97.4869,"MEAN_ANOMALY":262.6591,"EPHEMERIS_TYPE":0,"CLASSIFICATION_TYPE":"U","NORAD_CAT_ID":43577,"ELEMENT_SET_NO":999,"REV_AT_EPOCH":39845,"BSTAR":0.00012779,"MEAN_MOTION_DOT":3.78e-6,"MEAN_MOTION_DDOT":0},{"OBJECT_NAME":"IRIDIUM 159","OBJECT_ID":"2018-061K","EPOCH":"2026-03-04T11:36:30.494592","MEAN_MOTION":14.34217497,"ECCENTRICITY":0.00022763,"INCLINATION":86.3921,"RA_OF_ASC_NODE":100.5072,"ARG_OF_PERICENTER":92.3332,"MEAN_ANOMALY":267.8125,"EPHEMERIS_TYPE":0,"CLASSIFICATION_TYPE":"U","NORAD_CAT_ID":43578,"ELEMENT_SET_NO":999,"REV_AT_EPOCH":39837,"BSTAR":-1.6161281e-5,"MEAN_MOTION_DOT":-2.5e-7,"MEAN_MOTION_DDOT":0},{"OBJECT_NAME":"IRIDIUM 180","OBJECT_ID":"2019-002A","EPOCH":"2026-03-04T09:55:18.941952","MEAN_MOTION":14.34217762,"ECCENTRICITY":0.0002293,"INCLINATION":86.3967,"RA_OF_ASC_NODE":37.3708,"ARG_OF_PERICENTER":85.9622,"MEAN_ANOMALY":274.1836,"EPHEMERIS_TYPE":0,"CLASSIFICATION_TYPE":"U","NORAD_CAT_ID":43922,"ELEMENT_SET_NO":999,"REV_AT_EPOCH":37397,"BSTAR":6.760536e-6,"MEAN_MOTION_DOT":3.9e-7,"MEAN_MOTION_DDOT":0},{"OBJECT_NAME":"IRIDIUM 176","OBJECT_ID":"2019-002B","EPOCH":"2026-03-04T10:05:52.761120","MEAN_MOTION":14.72246976,"ECCENTRICITY":0.00024221,"INCLINATION":86.6084,"RA_OF_ASC_NODE":37.3258,"ARG_OF_PERICENTER":88.7981,"MEAN_ANOMALY":271.3513,"EPHEMERIS_TYPE":0,"CLASSIFICATION_TYPE":"U","NORAD_CAT_ID":43923,"ELEMENT_SET_NO":999,"REV_AT_EPOCH":38383,"BSTAR":0.00024652562,"MEAN_MOTION_DOT":1.579e-5,"MEAN_MOTION_DDOT":0},{"OBJECT_NAME":"IRIDIUM 168","OBJECT_ID":"2019-002C","EPOCH":"2026-03-04T11:26:38.434272","MEAN_MOTION":14.34221316,"ECCENTRICITY":0.0002211,"INCLINATION":86.3966,"RA_OF_ASC_NODE":37.4185,"ARG_OF_PERICENTER":86.5754,"MEAN_ANOMALY":273.5694,"EPHEMERIS_TYPE":0,"CLASSIFICATION_TYPE":"U","NORAD_CAT_ID":43924,"ELEMENT_SET_NO":999,"REV_AT_EPOCH":37396,"BSTAR":0.00013728194,"MEAN_MOTION_DOT":4.04e-6,"MEAN_MOTION_DDOT":0}]
